start=new Date('2021-12-24T00:00:00.000Z').valueOf();
sats=[{"MEAN_ELEMENT_THEORY":"SGP4","INCLINATION":"53.0550","PERIAPSIS":"545.687","GP_ID":"192323493","OBJECT_ID":"2020-070AH","OBJECT_TYPE":"PAYLOAD","LAUNCH_DATE":"2020-10-06","TIME_SYSTEM":"UTC","REV_AT_EPOCH":"6815","PERIOD":"95.592","EPHEMERIS_TYPE":"0","ELEMENT_SET_NO":"999","TLE_LINE1":"1 46563U 20070AH  21357.88479978  .00002337  00000-0  17580-3 0  9990","RCS_SIZE":"LARGE","APOAPSIS":"548.762","MEAN_MOTION_DDOT":"0.0000000000000","NORAD_CAT_ID":"46563","CENTER_NAME":"EARTH","BSTAR":"0.00017580000000","OBJECT_NAME":"STARLINK-1730","SITE":"AFETR","ECCENTRICITY":"0.00022200","MEAN_MOTION_DOT":"0.00002337","DECAY_DATE":null,"CLASSIFICATION_TYPE":"U","TLE_LINE2":"2 46563  53.0550 215.5900 0002220  74.7637 285.3597 15.06396435 68157","EPOCH":"2021-12-23T21:14:06.700992","COUNTRY_CODE":"US","SEMIMAJOR_AXIS":"6925.359","MEAN_ANOMALY":"285.3597","REF_FRAME":"TEME","RA_OF_ASC_NODE":"215.5900","ARG_OF_PERICENTER":"74.7637","MEAN_MOTION":"15.06396435","FILE":"3249421"},{"PERIOD":"95.593","EPHEMERIS_TYPE":"0","TIME_SYSTEM":"UTC","REV_AT_EPOCH":"6815","ELEMENT_SET_NO":"999","PERIAPSIS":"545.440","MEAN_ELEMENT_THEORY":"SGP4","INCLINATION":"53.0542","LAUNCH_DATE":"2020-10-06","GP_ID":"192323744","OBJECT_ID":"2020-070AJ","OBJECT_TYPE":"PAYLOAD","OBJECT_NAME":"STARLINK-1733","BSTAR":"0.00003029800000","RCS_SIZE":"LARGE","APOAPSIS":"549.064","TLE_LINE1":"1 46564U 20070AJ  21357.86639075  .00000169  00000-0  30298-4 0  9998","CENTER_NAME":"EARTH","MEAN_MOTION_DDOT":"0.0000000000000","NORAD_CAT_ID":"46564","DECAY_DATE":null,"CLASSIFICATION_TYPE":"U","ECCENTRICITY":"0.00026160","MEAN_MOTION_DOT":"0.00000169","TLE_LINE2":"2 46564  53.0542 215.6955 0002616  74.7888 285.3391 15.06387467 68154","SITE":"AFETR","RA_OF_ASC_NODE":"215.6955","REF_FRAME":"TEME","SEMIMAJOR_AXIS":"6925.387","MEAN_ANOMALY":"285.3391","MEAN_MOTION":"15.06387467","FILE":"3249421","ARG_OF_PERICENTER":"74.7888","EPOCH":"2021-12-23T20:47:36.160800","COUNTRY_CODE":"US"},{"COUNTRY_CODE":"US","EPOCH":"2021-12-23T20:15:45.719424","ARG_OF_PERICENTER":"72.6127","MEAN_MOTION":"15.06382635","FILE":"3249421","SEMIMAJOR_AXIS":"6925.402","MEAN_ANOMALY":"287.5100","REF_FRAME":"TEME","RA_OF_ASC_NODE":"215.7598","SITE":"AFETR","TLE_LINE2":"2 46565  53.0619 215.7598 0002184  72.6127 287.5100 15.06382635 68140","ECCENTRICITY":"0.00021840","MEAN_MOTION_DOT":"0.00000036","DECAY_DATE":null,"CLASSIFICATION_TYPE":"U","MEAN_MOTION_DDOT":"0.0000000000000","NORAD_CAT_ID":"46565","CENTER_NAME":"EARTH","TLE_LINE1":"1 46565U 20070AK  21357.84427916  .00000036  00000-0  21368-4 0  9997","APOAPSIS":"548.779","RCS_SIZE":"LARGE","BSTAR":"0.00002136800000","OBJECT_NAME":"STARLINK-1735","GP_ID":"192324990","OBJECT_TYPE":"PAYLOAD","OBJECT_ID":"2020-070AK","LAUNCH_DATE":"2020-10-06","MEAN_ELEMENT_THEORY":"SGP4","INCLINATION":"53.0619","PERIAPSIS":"545.754","ELEMENT_SET_NO":"999","TIME_SYSTEM":"UTC","REV_AT_EPOCH":"6814","PERIOD":"95.593","EPHEMERIS_TYPE":"0"},{"MEAN_ELEMENT_THEORY":"SGP4","INCLINATION":"53.0511","PERIAPSIS":"545.545","GP_ID":"192324743","OBJECT_ID":"2020-070AL","OBJECT_TYPE":"PAYLOAD","LAUNCH_DATE":"2020-10-06","TIME_SYSTEM":"UTC","REV_AT_EPOCH":"6815","PERIOD":"95.593","EPHEMERIS_TYPE":"0","ELEMENT_SET_NO":"999","TLE_LINE1":"1 46566U 20070AL  21357.89587189 -.00001025  00000-0 -49882-4 0  9994","RCS_SIZE":"LARGE","APOAPSIS":"548.956","MEAN_MOTION_DDOT":"0.0000000000000","NORAD_CAT_ID":"46566","CENTER_NAME":"EARTH","BSTAR":"-0.00004988200000","OBJECT_NAME":"STARLINK-1740","SITE":"AFETR","ECCENTRICITY":"0.00024630","MEAN_MOTION_DOT":"-0.00001025","DECAY_DATE":null,"CLASSIFICATION_TYPE":"U","TLE_LINE2":"2 46566  53.0511 215.5619 0002463  74.6117 285.5144 15.06387891 68151","EPOCH":"2021-12-23T21:30:03.331296","COUNTRY_CODE":"US","MEAN_ANOMALY":"285.5144","SEMIMAJOR_AXIS":"6925.386","REF_FRAME":"TEME","RA_OF_ASC_NODE":"215.5619","ARG_OF_PERICENTER":"74.6117","MEAN_MOTION":"15.06387891","FILE":"3249421"},{"EPHEMERIS_TYPE":"0","PERIOD":"95.593","REV_AT_EPOCH":"6816","TIME_SYSTEM":"UTC","ELEMENT_SET_NO":"999","PERIAPSIS":"545.688","MEAN_ELEMENT_THEORY":"SGP4","INCLINATION":"53.0540","LAUNCH_DATE":"2020-10-06","OBJECT_ID":"2020-070AM","OBJECT_TYPE":"PAYLOAD","GP_ID":"192323994","OBJECT_NAME":"STARLINK-1741","BSTAR":"0.00005050600000","RCS_SIZE":"LARGE","APOAPSIS":"548.866","TLE_LINE1":"1 46567U 20070AM  21357.92537177  .00000470  00000-0  50506-4 0  9997","CENTER_NAME":"EARTH","NORAD_CAT_ID":"46567","MEAN_MOTION_DDOT":"0.0000000000000","CLASSIFICATION_TYPE":"U","DECAY_DATE":null,"MEAN_MOTION_DOT":"0.00000470","ECCENTRICITY":"0.00022940","TLE_LINE2":"2 46567  53.0540 215.4360 0002294  76.1865 283.9379 15.06379350 68169","SITE":"AFETR","REF_FRAME":"TEME","RA_OF_ASC_NODE":"215.4360","SEMIMAJOR_AXIS":"6925.412","MEAN_ANOMALY":"283.9379","FILE":"3249421","MEAN_MOTION":"15.06379350","ARG_OF_PERICENTER":"76.1865","EPOCH":"2021-12-23T22:12:32.120928","COUNTRY_CODE":"US"},{"TLE_LINE2":"2 46568  53.0510 206.5182 0007212  64.6430 295.5322 15.45827272 68289","MEAN_MOTION_DOT":"0.00067555","ECCENTRICITY":"0.00072120","CLASSIFICATION_TYPE":"U","DECAY_DATE":null,"SITE":"AFETR","ARG_OF_PERICENTER":"64.6430","FILE":"3249421","MEAN_MOTION":"15.45827272","SEMIMAJOR_AXIS":"6807.085","MEAN_ANOMALY":"295.5322","RA_OF_ASC_NODE":"206.5182","REF_FRAME":"TEME","COUNTRY_CODE":"US","EPOCH":"2021-12-23T21:30:24.935616","ELEMENT_SET_NO":"999","REV_AT_EPOCH":"6828","TIME_SYSTEM":"UTC","EPHEMERIS_TYPE":"0","PERIOD":"93.154","OBJECT_TYPE":"PAYLOAD","OBJECT_ID":"2020-070AN","GP_ID":"192324245","LAUNCH_DATE":"2020-10-06","MEAN_ELEMENT_THEORY":"SGP4","INCLINATION":"53.0510","PERIAPSIS":"424.041","BSTAR":"0.00136650000000","OBJECT_NAME":"STARLINK-1743","NORAD_CAT_ID":"46568","MEAN_MOTION_DDOT":"0.0000000000000","CENTER_NAME":"EARTH","TLE_LINE1":"1 46568U 20070AN  21357.89612194  .00067555  00000-0  13665-2 0  9997","RCS_SIZE":"LARGE","APOAPSIS":"433.860"},{"TIME_SYSTEM":"UTC","REV_AT_EPOCH":"6815","PERIOD":"95.592","EPHEMERIS_TYPE":"0","ELEMENT_SET_NO":"999","MEAN_ELEMENT_THEORY":"SGP4","INCLINATION":"53.0534","PERIAPSIS":"545.660","GP_ID":"192324490","OBJECT_ID":"2020-070AP","OBJECT_TYPE":"PAYLOAD","LAUNCH_DATE":"2020-10-06","BSTAR":"0.00017074000000","OBJECT_NAME":"STARLINK-1747","TLE_LINE1":"1 46569U 20070AP  21357.87374111  .00002262  00000-0  17074-3 0  9993","RCS_SIZE":"LARGE","APOAPSIS":"548.771","MEAN_MOTION_DDOT":"0.0000000000000","NORAD_CAT_ID":"46569","CENTER_NAME":"EARTH","ECCENTRICITY":"0.00022460","MEAN_MOTION_DOT":"0.00002262","DECAY_DATE":null,"CLASSIFICATION_TYPE":"U","TLE_LINE2":"2 46569  53.0534 215.6494 0002246  76.3067 283.8172 15.06399344 68151","SITE":"AFETR","SEMIMAJOR_AXIS":"6925.351","MEAN_ANOMALY":"283.8172","RA_OF_ASC_NODE":"215.6494","REF_FRAME":"TEME","ARG_OF_PERICENTER":"76.3067","MEAN_MOTION":"15.06399344","FILE":"3249421","EPOCH":"2021-12-23T20:58:11.231904","COUNTRY_CODE":"US"},{"BSTAR":"0.00006400000000","OBJECT_NAME":"STARLINK-1748","MEAN_MOTION_DDOT":"0.0000000000000","NORAD_CAT_ID":"46570","CENTER_NAME":"EARTH","TLE_LINE1":"1 46570U 20070AQ  21357.84795008  .00000671  00000-0  64000-4 0  9998","RCS_SIZE":"LARGE","APOAPSIS":"548.815","ELEMENT_SET_NO":"999","TIME_SYSTEM":"UTC","REV_AT_EPOCH":"6814","PERIOD":"95.593","EPHEMERIS_TYPE":"0","GP_ID":"192325244","OBJECT_ID":"2020-070AQ","OBJECT_TYPE":"PAYLOAD","LAUNCH_DATE":"2020-10-06","INCLINATION":"53.0538","MEAN_ELEMENT_THEORY":"SGP4","PERIAPSIS":"545.656","ARG_OF_PERICENTER":"74.5268","MEAN_MOTION":"15.06392876","FILE":"3249421","SEMIMAJOR_AXIS":"6925.370","MEAN_ANOMALY":"285.5972","RA_OF_ASC_NODE":"215.7557","REF_FRAME":"TEME","COUNTRY_CODE":"US","EPOCH":"2021-12-23T20:21:02.886912","TLE_LINE2":"2 46570  53.0538 215.7557 0002281  74.5268 285.5972 15.06392876 68149","ECCENTRICITY":"0.00022810","MEAN_MOTION_DOT":"0.00000671","DECAY_DATE":null,"CLASSIFICATION_TYPE":"U","SITE":"AFETR"},{"MEAN_MOTION_DDOT":"0.0000000000000","NORAD_CAT_ID":"46571","CENTER_NAME":"EARTH","TLE_LINE1":"1 46571U 20070AR  21357.85840157  .00071604  00000-0  95115-3 0  9990","APOAPSIS":"395.712","RCS_SIZE":"LARGE","BSTAR":"0.00095115000000","OBJECT_NAME":"STARLINK-1753","GP_ID":"192323494","OBJECT_ID":"2020-070AR","OBJECT_TYPE":"PAYLOAD","LAUNCH_DATE":"2020-10-06","INCLINATION":"53.0545","MEAN_ELEMENT_THEORY":"SGP4","PERIAPSIS":"393.581","ELEMENT_SET_NO":"999","TIME_SYSTEM":"UTC","REV_AT_EPOCH":"6826","PERIOD":"92.451","EPHEMERIS_TYPE":"0","COUNTRY_CODE":"US","EPOCH":"2021-12-23T20:36:05.895648","ARG_OF_PERICENTER":"33.5359","MEAN_MOTION":"15.57586504","FILE":"3249421","SEMIMAJOR_AXIS":"6772.781","MEAN_ANOMALY":"326.5751","RA_OF_ASC_NODE":"207.7482","REF_FRAME":"TEME","SITE":"AFETR","TLE_LINE2":"2 46571  53.0545 207.7482 0001573  33.5359 326.5751 15.57586504 68268","ECCENTRICITY":"0.00015730","MEAN_MOTION_DOT":"0.00071604","DECAY_DATE":null,"CLASSIFICATION_TYPE":"U"},{"CENTER_NAME":"EARTH","MEAN_MOTION_DDOT":"0.0000000000000","NORAD_CAT_ID":"46572","APOAPSIS":"548.762","RCS_SIZE":"LARGE","TLE_LINE1":"1 46572U 20070AS  21357.91244070  .00003496  00000-0  25350-3 0  9998","OBJECT_NAME":"STARLINK-1531","BSTAR":"0.00025350000000","LAUNCH_DATE":"2020-10-06","GP_ID":"192323745","OBJECT_ID":"2020-070AS","OBJECT_TYPE":"PAYLOAD","PERIAPSIS":"545.694","INCLINATION":"53.0544","MEAN_ELEMENT_THEORY":"SGP4","ELEMENT_SET_NO":"999","PERIOD":"95.592","EPHEMERIS_TYPE":"0","TIME_SYSTEM":"UTC","REV_AT_EPOCH":"6787","COUNTRY_CODE":"US","EPOCH":"2021-12-23T21:53:54.876480","MEAN_MOTION":"15.06395214","FILE":"3249421","ARG_OF_PERICENTER":"66.1092","REF_FRAME":"TEME","RA_OF_ASC_NODE":"235.4889","MEAN_ANOMALY":"294.0129","SEMIMAJOR_AXIS":"6925.363","SITE":"AFETR","TLE_LINE2":"2 46572  53.0544 235.4889 0002215  66.1092 294.0129 15.06395214 67871","DECAY_DATE":null,"CLASSIFICATION_TYPE":"U","ECCENTRICITY":"0.00022150","MEAN_MOTION_DOT":"0.00003496"}];
